NORAD_CAT_ID,OBJECT_NAME,OBJECT_TYPE,EPOCH,MEAN_MOTION,ECCENTRICITY,INCLINATION,RA_OF_ASC_NODE,ARG_OF_PERICENTER,MEAN_ANOMALY,BSTAR,MEAN_MOTION_DOT,MEAN_MOTION_DDOT,TLE_LINE0,TLE_LINE1,TLE_LINE2,SEMIMAJOR_AXIS,PERIOD,APOGEE,PERIGEE,DECAYED
56475.0,STARLINK-5541,PAYLOAD,2023-08-18 14:00:01,15.58949324,0.0003665,70.0007,324.6648,279.6337,109.6325,-0.012628,-0.00896956,0.0,0 STARLINK-5541,1 56475U 23064AD  23230.58334491 -.00896956  00000-0 -12628-1 0  9994,2 56475  70.0007 324.6648 0003665 279.6337 109.6325 15.58949324 16040,6768.834,92.37,393.179,388.218,0.0
56475.0,STARLINK-5541,PAYLOAD,2023-08-19 04:00:00,15.57785431,0.0003526,70.0005,323.0531,275.5392,145.3467,-0.012514,-0.00854357,0.0,0 STARLINK-5541,1 56475U 23064AD  23231.16667824 -.00854357  00000-0 -12514-1 0  9991,2 56475  70.0005 323.0531 0003526 275.5392 145.3467 15.57785431 16134,6772.205,92.439,396.458,391.682,0.0
56475.0,STARLINK-5541,PAYLOAD,2023-08-19 12:00:00,15.57164778,0.0003445,70.0002,322.1334,278.1676,211.1351,-0.013817,-0.00915551,0.0,0 STARLINK-5541,1 56475U 23064AD  23231.50001157 -.00915551  00000-0 -13817-1 0  9991,2 56475  70.0002 322.1334 0003445 278.1676 211.1351 15.57164778 16191,6774.004,92.476,398.203,393.536,0.0
56475.0,STARLINK-5541,PAYLOAD,2023-08-20 12:00:00,15.55209077,0.0003575,69.9999,319.3787,275.546,54.3234,-0.014876,-0.00916476,0.0,0 STARLINK-5541,1 56475U 23064AD  23232.50001157 -.00916476  00000-0 -14876-1 0  9995,2 56475  69.9999 319.3787 0003575 275.5460  54.3234 15.55209077 16343,6779.682,92.592,403.971,399.123,0.0
56475.0,STARLINK-5541,PAYLOAD,2023-08-21 14:00:01,15.5307301,0.000349,69.9994,316.4037,277.7058,351.5032,-0.015535,-0.00887749,0.0,0 STARLINK-5541,1 56475U 23064AD  23233.58334491 -.00887749  00000-0 -15535-1 0  9997,2 56475  69.9994 316.4037 0003490 277.7058 351.5032 15.53073010 16518,6785.897,92.719,410.13,405.394,0.0
56475.0,STARLINK-5541,PAYLOAD,2023-08-22 04:00:01,15.5187075,0.0003442,69.9994,314.8058,272.9945,15.5822,-0.013288,-0.00729356,0.0,0 STARLINK-5541,1 56475U 23064AD  23234.16668981 -.00729356  00000-0 -13288-1 0  9998,2 56475  69.9994 314.8058 0003442 272.9945  15.5822 15.51870750 16600,6789.401,92.791,413.603,408.929,0.0
56475.0,STARLINK-5541,PAYLOAD,2023-08-22 12:00:02,15.51221371,0.0003499,69.9995,313.8938,278.5326,71.4243,-0.00014658,-8.765e-05,0.0,0 STARLINK-5541,1 56475U 23064AD  23234.50002315 -.00008765  00000-0 -14658-3 0  9997,2 56475  69.9995 313.8938 0003499 278.5326  71.4243 15.51221371 16656,6791.296,92.83,415.537,410.785,0.0
56475.0,STARLINK-5541,PAYLOAD,2023-08-23 04:00:00,15.5121449,0.0003527,69.9996,312.0709,272.6315,199.0754,0.00059962,0.00035202,0.0,0 STARLINK-5541,1 56475U 23064AD  23235.16667824  .00035202  00000-0  59962-3 0  9993,2 56475  69.9996 312.0709 0003527 272.6315 199.0754 15.51214490 16769,6791.316,92.83,415.576,410.786,0.0
56475.0,STARLINK-5541,PAYLOAD,2023-08-24 22:00:00,15.51227539,0.0003431,69.9999,307.2857,272.4509,249.0667,-0.0004379,-0.00025807,0.0,0 STARLINK-5541,1 56475U 23064AD  23236.91667824 -.00025807  00000-0 -43790-3 0  9991,2 56475  69.9999 307.2857 0003431 272.4509 249.0667 15.51227539  5809,6791.278,92.83,415.473,410.813,0.0
56475.0,STARLINK-5541,PAYLOAD,2023-08-25 04:00:00,15.51208019,0.0003392,70.0003,306.6023,267.9731,209.2219,0.00078959,0.00046461,0.0,0 STARLINK-5541,1 56475U 23064AD  23237.16667824  .00046461  00000-0  78959-3 0  9991,2 56475  70.0003 306.6023 0003392 267.9731 209.2219 15.51208019 17073,6791.335,92.831,415.504,410.896,0.0
56475.0,STARLINK-5541,PAYLOAD,2023-08-25 14:00:01,15.51211233,0.0003462,70.0004,305.463,274.1565,9.1889,0.00051894,0.00030421,0.0,0 STARLINK-5541,1 56475U 23064AD  23237.58334491  .00030421  00000-0  51894-3 0  9996,2 56475  70.0004 305.4630 0003462 274.1565   9.1889 15.51211233 17137,6791.326,92.831,415.542,410.839,0.0
56475.0,STARLINK-5541,PAYLOAD,2023-08-25 22:00:01,15.51218903,0.0003444,70.0001,304.5514,269.196,75.1294,-0.00012303,-7.384e-05,0.0,0 STARLINK-5541,1 56475U 23064AD  23237.91668981 -.00007384  00000-0 -12303-3 0  9993,2 56475  70.0001 304.5514 0003444 269.1960  75.1294 15.51218903  5960,6791.303,92.83,415.507,410.829,0.0
56475.0,STARLINK-5541,PAYLOAD,2023-08-26 00:00:02,15.51184666,0.000351,70.0001,304.3236,267.1199,182.4419,0.0011895,0.0007023,0.0,0 STARLINK-5541,1 56475U 23064AD  23238.00002315  .00070230  00000-0  11895-2 0  9999,2 56475  70.0001 304.3236 0003510 267.1199 182.4419 15.51184666 17204,6791.403,92.832,415.652,410.884,0.0
56475.0,STARLINK-5541,PAYLOAD,2023-08-26 07:21:14,15.51225112,0.0003318,69.9972,303.486,267.0548,93.0258,7.606e-06,2.82e-06,0.0,0 STARLINK-5541,1 56475U 23064AD  23238.30641899  .00000282  00000-0  76060-5 0  9996,2 56475  69.9972 303.4860 0003318 267.0548  93.0258 15.51225112 17248,6791.285,92.83,415.403,410.897,0.0
56475.0,STARLINK-5541,PAYLOAD,2023-08-26 11:59:48,15.51226297,0.0003275,69.9976,302.9578,267.2923,92.7888,1.0476e-05,4.51e-06,0.0,0 STARLINK-5541,1 56475U 23064AD  23238.49987121  .00000451  00000-0  10476-4 0  9993,2 56475  69.9976 302.9578 0003275 267.2923  92.7888 15.51226297 16927,6791.282,92.83,415.371,410.922,0.0
56475.0,STARLINK-5541,PAYLOAD,2023-08-27 05:01:15,15.51222043,0.0003182,69.9977,301.0183,265.7727,94.3096,8.7302e-06,3.48e-06,0.0,0 STARLINK-5541,1 56475U 23064AD  23239.20920249  .00000348  00000-0  87302-5 0  9999,2 56475  69.9977 301.0183 0003182 265.7727  94.3096 15.51222043 17039,6791.294,92.83,415.32,410.998,0.0
56475.0,STARLINK-5541,PAYLOAD,2023-08-27 14:18:23,15.51222316,0.0003169,69.9978,299.9606,265.5601,94.5223,8.5247e-06,3.36e-06,0.0,0 STARLINK-5541,1 56475U 23064AD  23239.59610957  .00000336  00000-0  85247-5 0  9996,2 56475  69.9978 299.9606 0003169 265.5601  94.5223 15.51222316 17441,6791.293,92.83,415.31,411.006,0.0
56475.0,STARLINK-5541,PAYLOAD,2023-08-28 10:25:34,15.51208254,0.0002847,69.9985,297.6679,256.5934,103.4935,-3.5672e-05,-2.258e-05,0.0,0 STARLINK-5541,1 56475U 23064AD  23240.43442147 -.00002258  00000-0 -35672-4 0  9998,2 56475  69.9985 297.6679 0002847 256.5934 103.4935 15.51208254 17574,6791.334,92.831,415.133,411.266,0.0
56475.0,STARLINK-5541,PAYLOAD,2023-08-28 18:10:35,15.50718004,0.000335,69.9974,296.7889,274.3781,85.7022,-0.001057,-0.00060681,0.0,0 STARLINK-5541,1 56475U 23064AD  23240.75736101 -.00060681  00000-0 -10570-2 0  9991,2 56475  69.9974 296.7889 0003350 274.3781  85.7022 15.50718004 17626,6792.765,92.86,416.906,412.355,0.0
56475.0,STARLINK-5541,PAYLOAD,2023-08-28 21:20:24,15.47416775,0.0011995,69.9975,296.4475,205.9349,154.1236,-0.0091728,-0.00447368,0.0,0 STARLINK-5541,1 56475U 23064AD  23240.88916860 -.00447368  00000-0 -91728-2 0  9992,2 56475  69.9975 296.4475 0011995 205.9349 154.1236 15.47416775 17296,6802.423,93.058,432.448,416.129,0.0
56475.0,STARLINK-5541,PAYLOAD,2023-08-29 12:00:00,15.48969232,0.0003337,69.9997,294.76,275.1572,269.2903,-0.017974,-0.00886866,0.0,0 STARLINK-5541,1 56475U 23064AD  23241.50001157 -.00886866  00000-0 -17974-1 0  9996,2 56475  69.9997 294.7600 0003337 275.1572 269.2903 15.48969232 17740,6797.877,92.965,422.011,417.474,0.0
56475.0,STARLINK-5541,PAYLOAD,2023-08-29 22:00:00,15.48152008,0.0003462,69.9994,293.6254,270.4144,76.1962,-0.018632,-0.00904872,0.0,0 STARLINK-5541,1 56475U 23064AD  23241.91667824 -.00904872  00000-0 -18632-1 0  9990,2 56475  69.9994 293.6254 0003462 270.4144  76.1962 15.48152008  5867,6800.269,93.014,424.488,419.78,0.0
56475.0,STARLINK-5541,PAYLOAD,2023-08-30 04:00:00,15.47687807,0.0003423,69.9994,292.9455,267.9809,31.3237,-0.01932,-0.00921739,0.0,0 STARLINK-5541,1 56475U 23064AD  23242.16667824 -.00921739  00000-0 -19320-1 0  9994,2 56475  69.9994 292.9455 0003423 267.9809  31.3237 15.47687807 17846,6801.629,93.042,425.822,421.166,0.0
56475.0,STARLINK-5541,PAYLOAD,2023-08-30 20:00:01,15.46380578,0.0003452,69.9987,291.1343,274.6447,136.4133,-0.020747,-0.00943947,0.0,0 STARLINK-5541,1 56475U 23064AD  23242.83334491 -.00943947  00000-0 -20747-1 0  9999,2 56475  69.9987 291.1343 0003452 274.6447 136.4133 15.46380578 17947,6805.462,93.121,429.676,424.977,0.0
56475.0,STARLINK-5541,PAYLOAD,2023-08-30 22:00:00,15.46190388,0.000335,69.9987,290.9081,272.5563,242.2569,-0.019732,-0.00895843,0.0,0 STARLINK-5541,1 56475U 23064AD  23242.91667824 -.00895843  00000-0 -19732-1 0  9990,2 56475  69.9987 290.9081 0003350 272.5563 242.2569 15.46190388  6019,6806.02,93.132,430.165,425.605,0.0
56475.0,STARLINK-5541,PAYLOAD,2023-08-31 12:00:00,15.45052299,0.0003373,69.9987,289.3266,277.1095,242.569,-0.020435,-0.00892447,0.0,0 STARLINK-5541,1 56475U 23064AD  23243.50001157 -.00892447  00000-0 -20435-1 0  9996,2 56475  69.9987 289.3266 0003373 277.1095 242.5690 15.45052299 18054,6809.361,93.201,433.523,428.93,0.0
56475.0,STARLINK-5541,PAYLOAD,2023-08-31 22:00:01,15.4422658,0.0003453,69.9983,288.1985,270.5779,45.4632,-0.020834,-0.00885197,0.0,0 STARLINK-5541,1 56475U 23064AD  23243.91668981 -.00885197  00000-0 -20834-1 0  9992,2 56475  69.9983 288.1985 0003453 270.5779  45.4632 15.44226580  6025,6811.789,93.251,436.006,431.301,0.0
56475.0,STARLINK-5541,PAYLOAD,2023-09-01 04:00:00,15.43772996,0.0003357,69.9984,287.5224,268.1167,357.0304,-0.022016,-0.00918247,0.0,0 STARLINK-5541,1 56475U 23064AD  23244.16667824 -.00918247  00000-0 -22016-1 0  9992,2 56475  69.9984 287.5224 0003357 268.1167 357.0304 15.43772996 18153,6813.123,93.278,437.275,432.701,0.0
56475.0,STARLINK-5541,PAYLOAD,2023-09-01 14:00:01,15.42934799,0.0003425,69.9981,286.3964,277.7529,141.7477,-0.021914,-0.00890733,0.0,0 STARLINK-5541,1 56475U 23064AD  23244.58334491 -.00890733  00000-0 -21914-1 0  9994,2 56475  69.9981 286.3964 0003425 277.7529 141.7477 15.42934799  5977,6815.59,93.329,439.789,435.121,0.0
56475.0,STARLINK-5541,PAYLOAD,2023-09-01 20:00:01,15.42457931,0.0003394,69.998,285.7216,272.2253,95.2922,-0.023402,-0.00932404,0.0,0 STARLINK-5541,1 56475U 23064AD  23244.83334491 -.00932404  00000-0 -23402-1 0  9998,2 56475  69.9980 285.7216 0003394 272.2253  95.2922 15.42457931 18259,6816.995,93.357,441.173,436.546,0.0
